[{"OBJECT_NAME":"ONEWEB-0138","OBJECT_ID":"2020-100AC","EPOCH":"2026-03-09T20:47:36.747456","MEAN_MOTION":13.12443438,"ECCENTRICITY":0.0001993,"INCLINATION":87.9003,"RA_OF_ASC_NODE":10.376,"ARG_OF_PERICENTER":82.3784,"MEAN_ANOMALY":277.7571,"EPHEMERIS_TYPE":0,"CLASSIFICATION_TYPE":"U","NORAD_CAT_ID":47284,"ELEMENT_SET_NO":999,"REV_AT_EPOCH":25162,"BSTAR":-0.0011058627,"MEAN_MOTION_DOT":-3.85e-6,"MEAN_MOTION_DDOT":0},{"OBJECT_NAME":"DELTA 1 DEB","OBJECT_ID":"1975-052LB","EPOCH":"2026-03-09T16:32:27.096864","MEAN_MOTION":13.27110979,"ECCENTRICITY":0.00909062,"INCLINATION":99.6693,"RA_OF_ASC_NODE":82.8398,"ARG_OF_PERICENTER":58.6017,"MEAN_ANOMALY":5.0092,"EPHEMERIS_TYPE":0,"CLASSIFICATION_TYPE":"U","NORAD_CAT_ID":26847,"ELEMENT_SET_NO":999,"REV_AT_EPOCH":39970,"BSTAR":8.7685065e-5,"MEAN_MOTION_DOT":0,"MEAN_MOTION_DDOT":0}]
